ONEWEB-0588             
1 55153U 23004P   24140.87347422  .00000106  00000+0  23590-3 0  9994
2 55153  87.9125 126.4609 0002234  71.5742 288.5633 13.18687640 69754
ONEWEB-0598             
1 55154U 23004Q   24140.54124268  .00000587  00000+0  16218-2 0  9991
2 55154  87.8974 172.0246 0002859  88.8015 271.3441 13.11323126 66479
ONEWEB-0599             
1 55155U 23004R   24140.57434533  .00000092  00000+0  20459-3 0  9998
2 55155  87.9172 156.8429 0002216  93.6407 266.4978 13.17649157 67584
ONEWEB-0614             
1 55156U 23004S   24140.53619841  .00000587  00000+0  16225-2 0  9996
2 55156  87.8975 172.0289 0001697  88.3334 271.7989 13.11347108 66407
ONEWEB-0616             
1 55157U 23004T   24140.61706042  .00000043  00000+0  76789-4 0  9996
2 55157  87.9167 156.8441 0002598 119.1115 241.0277 13.17648974 67809
ONEWEB-0617             
1 55158U 23004U   24140.60075512  .00000243  00000+0  65009-3 0  9991
2 55158  87.8972 172.0126 0001939  80.2941 279.8406 13.11397432 66442
ONEWEB-0618             
1 55159U 23004V   24140.42573884  .00000933  00000+0  37647-3 0  9990
2 55159  86.9044 103.5364 0014473  26.7495 333.4440 14.26879680 71248
ONEWEB-0619             
1 55160U 23004W   24140.57274895  .00000064  00000+0  13108-3 0  9999
2 55160  87.9169 156.8292 0001803 107.4462 252.6866 13.17650343 67694
